FENGYUN 2G              
1 40367U 14090A   25333.81468929 -.00000281  00000+0  00000+0 0  9997
2 40367   5.1325  75.2478 0002880 192.4839 194.2729  1.00269319 40004
METEOSAT-11 (MSG-4)     
1 40732U 15034A   25334.07925935  .00000085  00000+0  00000+0 0  9997
2 40732   2.7040  72.0326 0000296 157.0775 238.0449  1.00276750  5227
ELEKTRO-L 2             
1 41105U 15074A   25334.07449265 -.00000096  00000+0  00000+0 0  9996
2 41105   6.1909  72.9771 0003789 196.1210 172.4306  1.00270185 36510
INSAT-3DR               
1 41752U 16054A   25334.09558594 -.00000056  00000+0  00000+0 0  9997
2 41752   0.0581  90.7333 0014240 177.9603 269.0047  1.00269673 33822
HIMAWARI-9              
1 41836U 16064A   25333.89127652 -.00000253  00000+0  00000+0 0  9994
2 41836   0.0540  98.8195 0001421 152.7025 279.1489  1.00271874 33212
GOES 16                 
1 41866U 16071A   25333.98531213 -.00000070  00000+0  00000+0 0  9994
2 41866   0.0575 102.9658 0003218 151.0814  65.1297  1.00270893 33106
FENGYUN 4A              
1 41882U 16077A   25332.60376534 -.00000337  00000+0  00000+0 0  9995
2 41882   1.8103  82.5211 0004895 153.8506 172.3173  1.00262544 32914
CYGFM05                 
1 41884U 16078A   25333.89970484  .00022306  00000+0  42866-3 0  9993
2 41884  34.9574 130.9612 0009510  58.4160 301.7488 15.46934801497776
