{
  "type": "FeatureCollection",
  "features": [
    {
      "type": "Feature",
      "properties": {
        "OBJECT_NAME": "FENGYUN 2G",
        "OBJECT_ID": "2014-090A",
        "EPOCH": "2025-11-29T19:33:09.154656",
        "MEAN_MOTION": 1.00269319,
        "ECCENTRICITY": 0.000288,
        "INCLINATION": 5.1325,
        "RA_OF_ASC_NODE": 75.2478,
        "ARG_OF_PERICENTER": 192.4839,
        "MEAN_ANOMALY": 194.2729,
        "EPHEMERIS_TYPE": 0,
        "CLASSIFICATION_TYPE": "U",
        "NORAD_CAT_ID": 40367,
        "ELEMENT_SET_NO": 999,
        "REV_AT_EPOCH": 4000,
        "BSTAR": 0,
        "MEAN_MOTION_DOT": -2.81e-06,
        "MEAN_MOTION_DDOT": 0,
        "norad_id": 40367,
        "name": "FENGYUN 2G",
        "group": "weather",
        "longitude_deg": NaN,
        "latitude_deg": NaN,
        "alt_km": NaN,
        "orbit_class": "HEO",
        "timestamp": "2025-11-30T09:33:02.505202+00:00"
      },
      "geometry": {
        "type": "Point",
        "coordinates": [
          NaN,
          NaN
        ]
      }
    },
    {
      "type": "Feature",
      "properties": {
        "OBJECT_NAME": "METEOSAT-11 (MSG-4)",
        "OBJECT_ID": "2015-034A",
        "EPOCH": "2025-11-30T01:54:08.007840",
        "MEAN_MOTION": 1.0027675,
        "ECCENTRICITY": 2.96e-05,
        "INCLINATION": 2.704,
        "RA_OF_ASC_NODE": 72.0326,
        "ARG_OF_PERICENTER": 157.0775,
        "MEAN_ANOMALY": 238.0449,
        "EPHEMERIS_TYPE": 0,
        "CLASSIFICATION_TYPE": "U",
        "NORAD_CAT_ID": 40732,
        "ELEMENT_SET_NO": 999,
        "REV_AT_EPOCH": 522,
        "BSTAR": 0,
        "MEAN_MOTION_DOT": 8.5e-07,
        "MEAN_MOTION_DDOT": 0,
        "norad_id": 40732,
        "name": "METEOSAT-11 (MSG-4)",
        "group": "weather",
        "longitude_deg": NaN,
        "latitude_deg": NaN,
        "alt_km": NaN,
        "orbit_class": "HEO",
        "timestamp": "2025-11-30T09:33:02.505415+00:00"
      },
      "geometry": {
        "type": "Point",
        "coordinates": [
          NaN,
          NaN
        ]
      }
    },
    {
      "type": "Feature",
      "properties": {
        "OBJECT_NAME": "ELEKTRO-L 2",
        "OBJECT_ID": "2015-074A",
        "EPOCH": "2025-11-30T01:47:16.164960",
        "MEAN_MOTION": 1.00270185,
        "ECCENTRICITY": 0.0003789,
        "INCLINATION": 6.1909,
        "RA_OF_ASC_NODE": 72.9771,
        "ARG_OF_PERICENTER": 196.121,
        "MEAN_ANOMALY": 172.4306,
        "EPHEMERIS_TYPE": 0,
        "CLASSIFICATION_TYPE": "U",
        "NORAD_CAT_ID": 41105,
        "ELEMENT_SET_NO": 999,
        "REV_AT_EPOCH": 3651,
        "BSTAR": 0,
        "MEAN_MOTION_DOT": -9.6e-07,
        "MEAN_MOTION_DDOT": 0,
        "norad_id": 41105,
        "name": "ELEKTRO-L 2",
        "group": "weather",
        "longitude_deg": NaN,
        "latitude_deg": NaN,
        "alt_km": NaN,
        "orbit_class": "HEO",
        "timestamp": "2025-11-30T09:33:02.505775+00:00"
      },
      "geometry": {
        "type": "Point",
        "coordinates": [
          NaN,
          NaN
        ]
      }
    },
    {
      "type": "Feature",
      "properties": {
        "OBJECT_NAME": "INSAT-3DR",
        "OBJECT_ID": "2016-054A",
        "EPOCH": "2025-11-30T02:17:38.625216",
        "MEAN_MOTION": 1.00269673,
        "ECCENTRICITY": 0.001424,
        "INCLINATION": 0.0581,
        "RA_OF_ASC_NODE": 90.7333,
        "ARG_OF_PERICENTER": 177.9603,
        "MEAN_ANOMALY": 269.0047,
        "EPHEMERIS_TYPE": 0,
        "CLASSIFICATION_TYPE": "U",
        "NORAD_CAT_ID": 41752,
        "ELEMENT_SET_NO": 999,
        "REV_AT_EPOCH": 3382,
        "BSTAR": 0,
        "MEAN_MOTION_DOT": -5.6e-07,
        "MEAN_MOTION_DDOT": 0,
        "norad_id": 41752,
        "name": "INSAT-3DR",
        "group": "weather",
        "longitude_deg": NaN,
        "latitude_deg": NaN,
        "alt_km": NaN,
        "orbit_class": "HEO",
        "timestamp": "2025-11-30T09:33:02.506169+00:00"
      },
      "geometry": {
        "type": "Point",
        "coordinates": [
          NaN,
          NaN
        ]
      }
    },
    {
      "type": "Feature",
      "properties": {
        "OBJECT_NAME": "HIMAWARI-9",
        "OBJECT_ID": "2016-064A",
        "EPOCH": "2025-11-29T21:23:26.291328",
        "MEAN_MOTION": 1.00271874,
        "ECCENTRICITY": 0.0001421,
        "INCLINATION": 0.054,
        "RA_OF_ASC_NODE": 98.8195,
        "ARG_OF_PERICENTER": 152.7025,
        "MEAN_ANOMALY": 279.1489,
        "EPHEMERIS_TYPE": 0,
        "CLASSIFICATION_TYPE": "U",
        "NORAD_CAT_ID": 41836,
        "ELEMENT_SET_NO": 999,
        "REV_AT_EPOCH": 3321,
        "BSTAR": 0,
        "MEAN_MOTION_DOT": -2.53e-06,
        "MEAN_MOTION_DDOT": 0,
        "norad_id": 41836,
        "name": "HIMAWARI-9",
        "group": "weather",
        "longitude_deg": NaN,
        "latitude_deg": NaN,
        "alt_km": NaN,
        "orbit_class": "HEO",
        "timestamp": "2025-11-30T09:33:02.506273+00:00"
      },
      "geometry": {
        "type": "Point",
        "coordinates": [
          NaN,
          NaN
        ]
      }
    },
    {
      "type": "Feature",
      "properties": {
        "OBJECT_NAME": "GOES 16",
        "OBJECT_ID": "2016-071A",
        "EPOCH": "2025-11-29T23:38:50.968032",
        "MEAN_MOTION": 1.00270893,
        "ECCENTRICITY": 0.0003218,
        "INCLINATION": 0.0575,
        "RA_OF_ASC_NODE": 102.9658,
        "ARG_OF_PERICENTER": 151.0814,
        "MEAN_ANOMALY": 65.1297,
        "EPHEMERIS_TYPE": 0,
        "CLASSIFICATION_TYPE": "U",
        "NORAD_CAT_ID": 41866,
        "ELEMENT_SET_NO": 999,
        "REV_AT_EPOCH": 3310,
        "BSTAR": 0,
        "MEAN_MOTION_DOT": -7e-07,
        "MEAN_MOTION_DDOT": 0,
        "norad_id": 41866,
        "name": "GOES 16",
        "group": "weather",
        "longitude_deg": NaN,
        "latitude_deg": NaN,
        "alt_km": NaN,
        "orbit_class": "HEO",
        "timestamp": "2025-11-30T09:33:02.506372+00:00"
      },
      "geometry": {
        "type": "Point",
        "coordinates": [
          NaN,
          NaN
        ]
      }
    },
    {
      "type": "Feature",
      "properties": {
        "OBJECT_NAME": "FENGYUN 4A",
        "OBJECT_ID": "2016-077A",
        "EPOCH": "2025-11-28T14:29:25.325376",
        "MEAN_MOTION": 1.00262544,
        "ECCENTRICITY": 0.0004895,
        "INCLINATION": 1.8103,
        "RA_OF_ASC_NODE": 82.5211,
        "ARG_OF_PERICENTER": 153.8506,
        "MEAN_ANOMALY": 172.3173,
        "EPHEMERIS_TYPE": 0,
        "CLASSIFICATION_TYPE": "U",
        "NORAD_CAT_ID": 41882,
        "ELEMENT_SET_NO": 999,
        "REV_AT_EPOCH": 3291,
        "BSTAR": 0,
        "MEAN_MOTION_DOT": -3.37e-06,
        "MEAN_MOTION_DDOT": 0,
        "norad_id": 41882,
        "name": "FENGYUN 4A",
        "group": "weather",
        "longitude_deg": NaN,
        "latitude_deg": NaN,
        "alt_km": NaN,
        "orbit_class": "HEO",
        "timestamp": "2025-11-30T09:33:02.506406+00:00"
      },
      "geometry": {
        "type": "Point",
        "coordinates": [
          NaN,
          NaN
        ]
      }
    },
    {
      "type": "Feature",
      "properties": {
        "OBJECT_NAME": "CYGFM05",
        "OBJECT_ID": "2016-078A",
        "EPOCH": "2025-11-29T21:35:34.498176",
        "MEAN_MOTION": 15.46934801,
        "ECCENTRICITY": 0.000951,
        "INCLINATION": 34.9574,
        "RA_OF_ASC_NODE": 130.9612,
        "ARG_OF_PERICENTER": 58.416,
        "MEAN_ANOMALY": 301.7488,
        "EPHEMERIS_TYPE": 0,
        "CLASSIFICATION_TYPE": "U",
        "NORAD_CAT_ID": 41884,
        "ELEMENT_SET_NO": 999,
        "REV_AT_EPOCH": 49777,
        "BSTAR": 0.00042866,
        "MEAN_MOTION_DOT": 0.00022306,
        "MEAN_MOTION_DDOT": 0,
        "norad_id": 41884,
        "name": "CYGFM05",
        "group": "weather",
        "longitude_deg": NaN,
        "latitude_deg": NaN,
        "alt_km": NaN,
        "orbit_class": "HEO",
        "timestamp": "2025-11-30T09:33:02.506412+00:00"
      },
      "geometry": {
        "type": "Point",
        "coordinates": [
          NaN,
          NaN
        ]
      }
    }
  ]
}